[{"OBJECT_NAME":"NETSAT-1","OBJECT_ID":"2020-068W","EPOCH":"2026-03-09T22:42:38.711232","MEAN_MOTION":15.32042482,"ECCENTRICITY":0.00057337,"INCLINATION":97.8751,"RA_OF_ASC_NODE":63.2583,"ARG_OF_PERICENTER":18.5877,"MEAN_ANOMALY":341.5572,"EPHEMERIS_TYPE":0,"CLASSIFICATION_TYPE":"U","NORAD_CAT_ID":46506,"ELEMENT_SET_NO":999,"REV_AT_EPOCH":30009,"BSTAR":0.00059222329,"MEAN_MOTION_DOT":0.00018269,"MEAN_MOTION_DDOT":0},{"OBJECT_NAME":"STARLINK-35223","OBJECT_ID":"2025-198C","EPOCH":"2026-03-09T20:20:03.415200","MEAN_MOTION":15.30193495,"ECCENTRICITY":9.868e-5,"INCLINATION":53.1573,"RA_OF_ASC_NODE":270.3053,"ARG_OF_PERICENTER":89.3685,"MEAN_ANOMALY":270.7429,"EPHEMERIS_TYPE":0,"CLASSIFICATION_TYPE":"U","NORAD_CAT_ID":65494,"ELEMENT_SET_NO":999,"REV_AT_EPOCH":2864,"BSTAR":0.00079441967,"MEAN_MOTION_DOT":0.00023238,"MEAN_MOTION_DDOT":0}]
